NORAD_CAT_ID,OBJECT_NAME,OBJECT_TYPE,EPOCH,MEAN_MOTION,ECCENTRICITY,INCLINATION,RA_OF_ASC_NODE,ARG_OF_PERICENTER,MEAN_ANOMALY,BSTAR,MEAN_MOTION_DOT,MEAN_MOTION_DDOT,TLE_LINE0,TLE_LINE1,TLE_LINE2,SEMIMAJOR_AXIS,PERIOD,APOGEE,PERIGEE,DECAYED
52604.0,STARLINK-4013,PAYLOAD,2023-08-11 04:27:21,15.08833089,0.0001282,53.2153,185.6948,91.4135,268.7004,8.0007e-05,9.85e-06,0.0,0 STARLINK-4013,1 52604U 22052G   23223.18567053  .00000985  00000-0  80007-4 0  9996,2 52604  53.2153 185.6948 0001282  91.4135 268.7004 15.08833089 69091,6917.902,95.438,540.653,538.88,0.0
52604.0,STARLINK-4013,PAYLOAD,2023-08-12 13:50:28,15.08838523,0.0001414,53.218,179.4551,93.9816,266.1337,-2.8291e-05,-7.38e-06,0.0,0 STARLINK-4013,1 52604U 22052G   23224.57671422 -.00000738  00000-0 -28291-4 0  9991,2 52604  53.2180 179.4551 0001414  93.9816 266.1337 15.08838523 69305,6917.885,95.438,540.728,538.772,0.0
52604.0,STARLINK-4013,PAYLOAD,2023-08-13 07:19:41,15.08846228,0.0001229,53.2162,176.1816,92.6809,267.4324,0.00017722,2.534e-05,0.0,0 STARLINK-4013,1 52604U 22052G   23225.30534611  .00002534  00000-0  17722-3 0  9991,2 52604  53.2162 176.1816 0001229  92.6809 267.4324 15.08846228 69418,6917.861,95.437,540.577,538.876,0.0
52604.0,STARLINK-4013,PAYLOAD,2023-08-14 05:35:06,15.08834266,0.0001189,53.2161,172.0185,90.7501,269.3627,5.6173e-05,6.06e-06,0.0,0 STARLINK-4013,1 52604U 22052G   23226.23271886  .00000606  00000-0  56173-4 0  9998,2 52604  53.2161 172.0185 0001189  90.7501 269.3627 15.08834266 69555,6917.898,95.438,540.585,538.94,0.0
52604.0,STARLINK-4013,PAYLOAD,2023-08-15 02:15:07,15.08844473,0.0001469,53.217,168.1526,96.9566,263.1594,9.8445e-05,1.279e-05,0.0,0 STARLINK-4013,1 52604U 22052G   23227.09383314  .00001279  00000-0  98445-4 0  9998,2 52604  53.2170 168.1526 0001469  96.9566 263.1594 15.08844473 69680,6917.867,95.437,540.748,538.715,0.0
52604.0,STARLINK-4013,PAYLOAD,2023-08-16 05:16:39,15.08853244,0.0001453,53.2164,163.0972,96.0235,264.0923,0.0001926,2.78e-05,0.0,0 STARLINK-4013,1 52604U 22052G   23228.21990492  .00002780  00000-0  19260-3 0  9999,2 52604  53.2164 163.0972 0001453  96.0235 264.0923 15.08853244 69850,6917.84,95.437,540.71,538.7,0.0
52604.0,STARLINK-4013,PAYLOAD,2023-08-17 01:56:41,15.08845135,0.0001483,53.2158,159.2332,89.0128,271.1034,8.9336e-05,1.134e-05,0.0,0 STARLINK-4013,1 52604U 22052G   23229.08103203  .00001134  00000-0  89336-4 0  9995,2 52604  53.2158 159.2332 0001483  89.0128 271.1034 15.08845135 69982,6917.865,95.437,540.756,538.704,0.0
52604.0,STARLINK-4013,PAYLOAD,2023-08-19 00:02:48,15.08894021,0.0001028,53.2168,150.609,97.4972,262.6137,0.00051814,7.98e-05,0.0,0 STARLINK-4013,1 52604U 22052G   23231.00195130  .00007980  00000-0  51814-3 0  9994,2 52604  53.2168 150.6090 0001028  97.4972 262.6137 15.08894021 70275,6917.715,95.434,540.291,538.869,0.0
52604.0,STARLINK-4013,PAYLOAD,2023-08-19 19:07:29,15.08837607,0.0001165,53.2167,147.0391,88.9555,271.157,-1.4036e-05,-5.11e-06,0.0,0 STARLINK-4013,1 52604U 22052G   23231.79687157 -.00000511  00000-0 -14036-4 0  9996,2 52604  53.2167 147.0391 0001165  88.9555 271.1570 15.08837607 70398,6917.888,95.438,540.559,538.947,0.0
52604.0,STARLINK-4013,PAYLOAD,2023-08-20 03:04:26,15.08828198,0.0001478,53.2173,145.554,94.2906,265.8255,-9.0941e-05,-1.735e-05,0.0,0 STARLINK-4013,1 52604U 22052G   23232.12808109 -.00001735  00000-0 -90941-4 0  9994,2 52604  53.2173 145.5540 0001478  94.2906 265.8255 15.08828198 70442,6917.916,95.438,540.804,538.759,0.0
52604.0,STARLINK-4013,PAYLOAD,2023-08-21 01:19:49,15.08836305,0.0001454,53.2172,141.3916,90.8956,269.2202,8.9297e-05,1.133e-05,0.0,0 STARLINK-4013,1 52604U 22052G   23233.05543776  .00001133  00000-0  89297-4 0  9995,2 52604  53.2172 141.3916 0001454  90.8956 269.2202 15.08836305 70587,6917.892,95.438,540.763,538.751,0.0
52604.0,STARLINK-4013,PAYLOAD,2023-08-22 02:46:00,15.08830509,0.0001831,53.2164,136.6311,96.3393,263.7808,0.00023115,3.392e-05,0.0,0 STARLINK-4013,1 52604U 22052G   23234.11528254  .00003392  00000-0  23115-3 0  9992,2 52604  53.2164 136.6311 0001831  96.3393 263.7808 15.08830509 70748,6917.909,95.438,541.041,538.508,0.0
52604.0,STARLINK-4013,PAYLOAD,2023-08-24 02:27:34,15.08840471,0.0001392,53.2151,127.7076,98.0697,262.0453,0.00010049,1.312e-05,0.0,0 STARLINK-4013,1 52604U 22052G   23236.10248531  .00001312  00000-0  10049-3 0  9992,2 52604  53.2151 127.7076 0001392  98.0697 262.0453 15.08840471 70670,6917.879,95.438,540.707,538.781,0.0
52604.0,STARLINK-4013,PAYLOAD,2023-08-25 02:18:21,15.08849644,0.0001378,53.2148,123.2468,112.6936,247.4202,0.00018368,2.637e-05,0.0,0 STARLINK-4013,1 52604U 22052G   23237.09607918  .00002637  00000-0  18368-3 0  9992,2 52604  53.2148 123.2468 0001378 112.6936 247.4202 15.08849644 70822,6917.851,95.437,540.669,538.763,0.0
52604.0,STARLINK-4013,PAYLOAD,2023-08-25 19:47:36,15.08841499,0.0001579,53.2158,119.975,83.4193,276.6979,2.0921e-05,4.5e-07,0.0,0 STARLINK-4013,1 52604U 22052G   23237.82472452  .00000045  00000-0  20921-4 0  9996,2 52604  53.2158 119.9750 0001579  83.4193 276.6979 15.08841499 71301,6917.876,95.437,540.833,538.648,0.0
52604.0,STARLINK-4013,PAYLOAD,2023-08-25 21:22:59,15.08839376,0.0001387,53.216,119.6776,71.8128,288.3015,5.0638e-05,5.18e-06,0.0,0 STARLINK-4013,1 52604U 22052G   23237.89096725  .00000518  00000-0  50638-4 0  9991,2 52604  53.2160 119.6776 0001387  71.8128 288.3015 15.08839376 70946,6917.882,95.438,540.707,538.788,0.0
52604.0,STARLINK-4013,PAYLOAD,2023-08-26 00:33:45,15.08842127,0.0001356,53.2166,119.0871,85.2272,274.8875,4.4087e-05,4.14e-06,0.0,0 STARLINK-4013,1 52604U 22052G   23238.02344486  .00000414  00000-0  44087-4 0  9993,2 52604  53.2166 119.0871 0001356  85.2272 274.8875 15.08842127 70961,6917.874,95.437,540.677,538.801,0.0
52604.0,STARLINK-4013,PAYLOAD,2023-08-26 21:13:46,15.08847286,0.0001351,53.2167,115.2228,94.0923,266.0223,-7.9782e-05,-1.558e-05,0.0,0 STARLINK-4013,1 52604U 22052G   23238.88456557 -.00001558  00000-0 -79782-4 0  9992,2 52604  53.2167 115.2228 0001351  94.0923 266.0223 15.08847286 71098,6917.858,95.437,540.658,538.789,0.0
52604.0,STARLINK-4013,PAYLOAD,2023-08-27 01:59:56,15.08825037,0.0001586,53.2169,114.3289,95.7887,264.3286,0.00035078,5.297e-05,0.0,0 STARLINK-4013,1 52604U 22052G   23239.08328767  .00005297  00000-0  35078-3 0  9997,2 52604  53.2169 114.3289 0001586  95.7887 264.3286 15.08825037 71498,6917.926,95.439,540.888,538.694,0.0
52604.0,STARLINK-4013,PAYLOAD,2023-08-27 21:04:33,15.08836975,0.0001348,53.2169,110.7593,71.9711,288.1428,9.5289e-05,1.229e-05,0.0,0 STARLINK-4013,1 52604U 22052G   23239.87816858  .00001229  00000-0  95289-4 0  9999,2 52604  53.2169 110.7593 0001348  71.9711 288.1428 15.08836975 71242,6917.89,95.438,540.687,538.822,0.0
52604.0,STARLINK-4013,PAYLOAD,2023-08-28 08:12:15,15.0884225,0.0001461,53.2172,108.678,74.9697,285.1457,5.5834e-05,6.01e-06,0.0,0 STARLINK-4013,1 52604U 22052G   23240.34184706  .00000601  00000-0  55834-4 0  9998,2 52604  53.2172 108.6780 0001461  74.9697 285.1457 15.08842250 71682,6917.874,95.437,540.749,538.728,0.0
52604.0,STARLINK-4013,PAYLOAD,2023-08-28 20:55:21,15.08834781,0.0001527,53.2178,106.2989,108.9579,251.1579,-1.8991e-05,-5.9e-06,0.0,0 STARLINK-4013,1 52604U 22052G   23240.87177458 -.00000590  00000-0 -18991-4 0  9994,2 52604  53.2178 106.2989 0001527 108.9579 251.1579 15.08834781 71399,6917.896,95.438,540.818,538.705,0.0
52604.0,STARLINK-4013,PAYLOAD,2023-08-29 00:06:07,15.08836228,0.0001329,53.2172,105.7042,90.285,269.8295,-1.2382e-05,-4.85e-06,0.0,0 STARLINK-4013,1 52604U 22052G   23241.00425421 -.00000485  00000-0 -12382-4 0  9997,2 52604  53.2172 105.7042 0001329  90.2850 269.8295 15.08836228 71784,6917.892,95.438,540.676,538.838,0.0
52604.0,STARLINK-4013,PAYLOAD,2023-08-29 20:46:08,15.08838131,0.0001388,53.2177,101.8403,90.3936,269.7215,4.4658e-05,4.23e-06,0.0,0 STARLINK-4013,1 52604U 22052G   23241.86537390  .00000423  00000-0  44658-4 0  9991,2 52604  53.2177 101.8403 0001388  90.3936 269.7215 15.08838131 71548,6917.886,95.438,540.711,538.791,0.0
52604.0,STARLINK-4013,PAYLOAD,2023-08-30 01:32:17,15.08838011,0.0001328,53.2174,100.9465,88.4002,271.7142,0.00011889,1.605e-05,0.0,0 STARLINK-4013,1 52604U 22052G   23242.06409206  .00001605  00000-0  11889-3 0  9990,2 52604  53.2174 100.9465 0001328  88.4002 271.7142 15.08838011 71942,6917.886,95.438,540.67,538.833,0.0
52604.0,STARLINK-4013,PAYLOAD,2023-08-30 20:36:54,15.08846816,0.0001384,53.216,97.3804,92.3644,267.7507,0.00015516,2.183e-05,0.0,0 STARLINK-4013,1 52604U 22052G   23242.85896400  .00002183  00000-0  15516-3 0  9996,2 52604  53.2160  97.3804 0001384  92.3644 267.7507 15.08846816 71695,6917.86,95.437,540.682,538.767,0.0
52604.0,STARLINK-4013,PAYLOAD,2023-08-30 23:47:40,15.08844967,0.0001328,53.2153,96.7862,91.0654,269.0491,9.5618e-05,1.234e-05,0.0,0 STARLINK-4013,1 52604U 22052G   23242.99144642  .00001234  00000-0  95618-4 0  9993,2 52604  53.2153  96.7862 0001328  91.0654 269.0491 15.08844967 72085,6917.865,95.437,540.649,538.812,0.0
52604.0,STARLINK-4013,PAYLOAD,2023-08-31 23:38:30,15.08825449,0.0003313,53.2142,92.3287,63.3067,296.8264,-3.8825e-07,-2.95e-06,0.0,0 STARLINK-4013,1 52604U 22052G   23243.98507887 -.00000295  00000-0 -38825-6 0  9994,2 52604  53.2142  92.3287 0003313  63.3067 296.8264 15.08825449 72239,6917.925,95.438,542.082,537.498,0.0
52604.0,STARLINK-4013,PAYLOAD,2023-09-01 07:35:25,15.08851955,0.0001138,53.2155,90.8388,82.2059,277.9062,-0.00039542,-6.577e-05,0.0,0 STARLINK-4013,1 52604U 22052G   23244.31626235 -.00006577  00000-0 -39542-3 0  9994,2 52604  53.2155  90.8388 0001138  82.2059 277.9062 15.08851955 72284,6917.844,95.437,540.496,538.922,0.0
52604.0,STARLINK-4013,PAYLOAD,2023-09-01 13:56:57,15.08838267,0.00013,53.2149,89.65,73.1012,287.0122,8.6368e-05,1.087e-05,0.0,0 STARLINK-4013,1 52604U 22052G   23244.58121995  .00001087  00000-0  86368-4 0  9994,2 52604  53.2149  89.6500 0001300  73.1012 287.0122 15.08838267 71951,6917.886,95.438,540.65,538.851,0.0
